KUIPER-00008            
1 63724U 25088A   25273.80784796  .00012747  00000+0  10483-2 0  9991
2 63724  51.8901  95.9679 0010756 281.1349  78.8412 14.99399025 24074
KUIPER-00009            
1 63725U 25088B   25273.87231981  .00004195  00000+0  57958-3 0  9999
2 63725  51.9006  93.3180 0011847 294.0851  65.8871 14.79868052 24113
KUIPER-00010            
1 63726U 25088C   25274.16667823  .00010098  00000+0  59095-3 0  9994
2 63726  51.8800  71.3884 0010953 328.3681  93.2247 15.12352851  4686
KUIPER-00011            
1 63727U 25088D   25274.18093609 -.00248973  00000+0 -26880-1 0  9993
2 63727  51.8909  76.2665 0011772 318.5100  41.4971 14.89315496 24133
KUIPER-00012            
1 63728U 25088E   25274.13258884  .00020139  00000+0  90970-3 0  9990
2 63728  51.8754  71.8163 0010077 300.3207  59.6775 15.20904522 24144
KUIPER-00013            
1 63729U 25088F   25273.87122122  .00007720  00000+0  10393-2 0  9997
2 63729  51.9007  94.7878 0007333 214.4074 145.6414 14.79971812 23900
KUIPER-00014            
1 63730U 25088G   25273.80197431  .00007805  00000+0  10502-2 0  9993
2 63730  51.9014  96.0598 0007805 285.6902  74.3199 14.79981724 23695
KUIPER-00015            
1 63731U 25088H   25273.92636124  .00007962  00000+0  10319-2 0  9994
2 63731  51.8982 107.3906 0009837 267.0684  92.9153 14.81530900 24007
