<?xml version="1.0" encoding="UTF-8"?>
<ndm xmlns:xsi="http://www.w3.org/2001/XMLSchema-instance" xsi:noNamespaceSchemaLocation="https://sanaregistry.org/r/ndmxml_unqualified/ndmxml-2.0.0-master-2.0.xsd">
<omm id="CCSDS_OMM_VERS" version="2.0">
<header><CREATION_DATE/><ORIGINATOR/></header><body><segment><metadata><OBJECT_NAME>KUIPER-00008</OBJECT_NAME><OBJECT_ID>2025-088A</OBJECT_ID><CENTER_NAME>EARTH</CENTER_NAME><REF_FRAME>TEME</REF_FRAME><TIME_SYSTEM>UTC</TIME_SYSTEM><MEAN_ELEMENT_THEORY>SGP4</MEAN_ELEMENT_THEORY></metadata><data><meanElements><EPOCH>2025-09-30T19:23:18.063744</EPOCH><MEAN_MOTION>14.99399025</MEAN_MOTION><ECCENTRICITY>.0010756</ECCENTRICITY><INCLINATION>51.8901</INCLINATION><RA_OF_ASC_NODE>95.9679</RA_OF_ASC_NODE><ARG_OF_PERICENTER>281.1349</ARG_OF_PERICENTER><MEAN_ANOMALY>78.8412</MEAN_ANOMALY></meanElements><tleParameters><EPHEMERIS_TYPE>0</EPHEMERIS_TYPE><CLASSIFICATION_TYPE>U</CLASSIFICATION_TYPE><NORAD_CAT_ID>63724</NORAD_CAT_ID><ELEMENT_SET_NO>999</ELEMENT_SET_NO><REV_AT_EPOCH>2407</REV_AT_EPOCH><BSTAR>.10483E-2</BSTAR><MEAN_MOTION_DOT>.12747E-3</MEAN_MOTION_DOT><MEAN_MOTION_DDOT>0</MEAN_MOTION_DDOT></tleParameters></data></segment></body></omm>
<omm id="CCSDS_OMM_VERS" version="2.0">
<header><CREATION_DATE/><ORIGINATOR/></header><body><segment><metadata><OBJECT_NAME>KUIPER-00009</OBJECT_NAME><OBJECT_ID>2025-088B</OBJECT_ID><CENTER_NAME>EARTH</CENTER_NAME><REF_FRAME>TEME</REF_FRAME><TIME_SYSTEM>UTC</TIME_SYSTEM><MEAN_ELEMENT_THEORY>SGP4</MEAN_ELEMENT_THEORY></metadata><data><meanElements><EPOCH>2025-09-30T20:56:08.431584</EPOCH><MEAN_MOTION>14.79868052</MEAN_MOTION><ECCENTRICITY>.0011847</ECCENTRICITY><INCLINATION>51.9006</INCLINATION><RA_OF_ASC_NODE>93.3180</RA_OF_ASC_NODE><ARG_OF_PERICENTER>294.0851</ARG_OF_PERICENTER><MEAN_ANOMALY>65.8871</MEAN_ANOMALY></meanElements><tleParameters><EPHEMERIS_TYPE>0</EPHEMERIS_TYPE><CLASSIFICATION_TYPE>U</CLASSIFICATION_TYPE><NORAD_CAT_ID>63725</NORAD_CAT_ID><ELEMENT_SET_NO>999</ELEMENT_SET_NO><REV_AT_EPOCH>2411</REV_AT_EPOCH><BSTAR>.57958E-3</BSTAR><MEAN_MOTION_DOT>.4195E-4</MEAN_MOTION_DOT><MEAN_MOTION_DDOT>0</MEAN_MOTION_DDOT></tleParameters></data></segment></body></omm>
<omm id="CCSDS_OMM_VERS" version="2.0">
<header><CREATION_DATE/><ORIGINATOR/></header><body><segment><metadata><OBJECT_NAME>KUIPER-00010</OBJECT_NAME><OBJECT_ID>2025-088C</OBJECT_ID><CENTER_NAME>EARTH</CENTER_NAME><REF_FRAME>TEME</REF_FRAME><TIME_SYSTEM>UTC</TIME_SYSTEM><MEAN_ELEMENT_THEORY>SGP4</MEAN_ELEMENT_THEORY></metadata><data><meanElements><EPOCH>2025-10-01T04:00:00.999072</EPOCH><MEAN_MOTION>15.12352851</MEAN_MOTION><ECCENTRICITY>.0010953</ECCENTRICITY><INCLINATION>51.8800</INCLINATION><RA_OF_ASC_NODE>71.3884</RA_OF_ASC_NODE><ARG_OF_PERICENTER>328.3681</ARG_OF_PERICENTER><MEAN_ANOMALY>93.2247</MEAN_ANOMALY></meanElements><tleParameters><EPHEMERIS_TYPE>0</EPHEMERIS_TYPE><CLASSIFICATION_TYPE>U</CLASSIFICATION_TYPE><NORAD_CAT_ID>63726</NORAD_CAT_ID><ELEMENT_SET_NO>999</ELEMENT_SET_NO><REV_AT_EPOCH>468</REV_AT_EPOCH><BSTAR>.59095E-3</BSTAR><MEAN_MOTION_DOT>.10098E-3</MEAN_MOTION_DOT><MEAN_MOTION_DDOT>0</MEAN_MOTION_DDOT></tleParameters></data></segment></body></omm>
<omm id="CCSDS_OMM_VERS" version="2.0">
<header><CREATION_DATE/><ORIGINATOR/></header><body><segment><metadata><OBJECT_NAME>KUIPER-00011</OBJECT_NAME><OBJECT_ID>2025-088D</OBJECT_ID><CENTER_NAME>EARTH</CENTER_NAME><REF_FRAME>TEME</REF_FRAME><TIME_SYSTEM>UTC</TIME_SYSTEM><MEAN_ELEMENT_THEORY>SGP4</MEAN_ELEMENT_THEORY></metadata><data><meanElements><EPOCH>2025-10-01T04:20:32.878176</EPOCH><MEAN_MOTION>14.89315496</MEAN_MOTION><ECCENTRICITY>.0011772</ECCENTRICITY><INCLINATION>51.8909</INCLINATION><RA_OF_ASC_NODE>76.2665</RA_OF_ASC_NODE><ARG_OF_PERICENTER>318.5100</ARG_OF_PERICENTER><MEAN_ANOMALY>41.4971</MEAN_ANOMALY></meanElements><tleParameters><EPHEMERIS_TYPE>0</EPHEMERIS_TYPE><CLASSIFICATION_TYPE>U</CLASSIFICATION_TYPE><NORAD_CAT_ID>63727</NORAD_CAT_ID><ELEMENT_SET_NO>999</ELEMENT_SET_NO><REV_AT_EPOCH>2413</REV_AT_EPOCH><BSTAR>-.2688E-1</BSTAR><MEAN_MOTION_DOT>-.248973E-2</MEAN_MOTION_DOT><MEAN_MOTION_DDOT>0</MEAN_MOTION_DDOT></tleParameters></data></segment></body></omm>
<omm id="CCSDS_OMM_VERS" version="2.0">
<header><CREATION_DATE/><ORIGINATOR/></header><body><segment><metadata><OBJECT_NAME>KUIPER-00012</OBJECT_NAME><OBJECT_ID>2025-088E</OBJECT_ID><CENTER_NAME>EARTH</CENTER_NAME><REF_FRAME>TEME</REF_FRAME><TIME_SYSTEM>UTC</TIME_SYSTEM><MEAN_ELEMENT_THEORY>SGP4</MEAN_ELEMENT_THEORY></metadata><data><meanElements><EPOCH>2025-10-01T03:10:55.675776</EPOCH><MEAN_MOTION>15.20904522</MEAN_MOTION><ECCENTRICITY>.0010077</ECCENTRICITY><INCLINATION>51.8754</INCLINATION><RA_OF_ASC_NODE>71.8163</RA_OF_ASC_NODE><ARG_OF_PERICENTER>300.3207</ARG_OF_PERICENTER><MEAN_ANOMALY>59.6775</MEAN_ANOMALY></meanElements><tleParameters><EPHEMERIS_TYPE>0</EPHEMERIS_TYPE><CLASSIFICATION_TYPE>U</CLASSIFICATION_TYPE><NORAD_CAT_ID>63728</NORAD_CAT_ID><ELEMENT_SET_NO>999</ELEMENT_SET_NO><REV_AT_EPOCH>2414</REV_AT_EPOCH><BSTAR>.9097E-3</BSTAR><MEAN_MOTION_DOT>.20139E-3</MEAN_MOTION_DOT><MEAN_MOTION_DDOT>0</MEAN_MOTION_DDOT></tleParameters></data></segment></body></omm>
<omm id="CCSDS_OMM_VERS" version="2.0">
<header><CREATION_DATE/><ORIGINATOR/></header><body><segment><metadata><OBJECT_NAME>KUIPER-00013</OBJECT_NAME><OBJECT_ID>2025-088F</OBJECT_ID><CENTER_NAME>EARTH</CENTER_NAME><REF_FRAME>TEME</REF_FRAME><TIME_SYSTEM>UTC</TIME_SYSTEM><MEAN_ELEMENT_THEORY>SGP4</MEAN_ELEMENT_THEORY></metadata><data><meanElements><EPOCH>2025-09-30T20:54:33.513408</EPOCH><MEAN_MOTION>14.79971812</MEAN_MOTION><ECCENTRICITY>.0007333</ECCENTRICITY><INCLINATION>51.9007</INCLINATION><RA_OF_ASC_NODE>94.7878</RA_OF_ASC_NODE><ARG_OF_PERICENTER>214.4074</ARG_OF_PERICENTER><MEAN_ANOMALY>145.6414</MEAN_ANOMALY></meanElements><tleParameters><EPHEMERIS_TYPE>0</EPHEMERIS_TYPE><CLASSIFICATION_TYPE>U</CLASSIFICATION_TYPE><NORAD_CAT_ID>63729</NORAD_CAT_ID><ELEMENT_SET_NO>999</ELEMENT_SET_NO><REV_AT_EPOCH>2390</REV_AT_EPOCH><BSTAR>.10393E-2</BSTAR><MEAN_MOTION_DOT>.772E-4</MEAN_MOTION_DOT><MEAN_MOTION_DDOT>0</MEAN_MOTION_DDOT></tleParameters></data></segment></body></omm>
<omm id="CCSDS_OMM_VERS" version="2.0">
<header><CREATION_DATE/><ORIGINATOR/></header><body><segment><metadata><OBJECT_NAME>KUIPER-00014</OBJECT_NAME><OBJECT_ID>2025-088G</OBJECT_ID><CENTER_NAME>EARTH</CENTER_NAME><REF_FRAME>TEME</REF_FRAME><TIME_SYSTEM>UTC</TIME_SYSTEM><MEAN_ELEMENT_THEORY>SGP4</MEAN_ELEMENT_THEORY></metadata><data><meanElements><EPOCH>2025-09-30T19:14:50.580384</EPOCH><MEAN_MOTION>14.79981724</MEAN_MOTION><ECCENTRICITY>.0007805</ECCENTRICITY><INCLINATION>51.9014</INCLINATION><RA_OF_ASC_NODE>96.0598</RA_OF_ASC_NODE><ARG_OF_PERICENTER>285.6902</ARG_OF_PERICENTER><MEAN_ANOMALY>74.3199</MEAN_ANOMALY></meanElements><tleParameters><EPHEMERIS_TYPE>0</EPHEMERIS_TYPE><CLASSIFICATION_TYPE>U</CLASSIFICATION_TYPE><NORAD_CAT_ID>63730</NORAD_CAT_ID><ELEMENT_SET_NO>999</ELEMENT_SET_NO><REV_AT_EPOCH>2369</REV_AT_EPOCH><BSTAR>.10502E-2</BSTAR><MEAN_MOTION_DOT>.7805E-4</MEAN_MOTION_DOT><MEAN_MOTION_DDOT>0</MEAN_MOTION_DDOT></tleParameters></data></segment></body></omm>
<omm id="CCSDS_OMM_VERS" version="2.0">
<header><CREATION_DATE/><ORIGINATOR/></header><body><segment><metadata><OBJECT_NAME>KUIPER-00015</OBJECT_NAME><OBJECT_ID>2025-088H</OBJECT_ID><CENTER_NAME>EARTH</CENTER_NAME><REF_FRAME>TEME</REF_FRAME><TIME_SYSTEM>UTC</TIME_SYSTEM><MEAN_ELEMENT_THEORY>SGP4</MEAN_ELEMENT_THEORY></metadata><data><meanElements><EPOCH>2025-09-30T22:13:57.611136</EPOCH><MEAN_MOTION>14.81530900</MEAN_MOTION><ECCENTRICITY>.0009837</ECCENTRICITY><INCLINATION>51.8982</INCLINATION><RA_OF_ASC_NODE>107.3906</RA_OF_ASC_NODE><ARG_OF_PERICENTER>267.0684</ARG_OF_PERICENTER><MEAN_ANOMALY>92.9153</MEAN_ANOMALY></meanElements><tleParameters><EPHEMERIS_TYPE>0</EPHEMERIS_TYPE><CLASSIFICATION_TYPE>U</CLASSIFICATION_TYPE><NORAD_CAT_ID>63731</NORAD_CAT_ID><ELEMENT_SET_NO>999</ELEMENT_SET_NO><REV_AT_EPOCH>2400</REV_AT_EPOCH><BSTAR>.10319E-2</BSTAR><MEAN_MOTION_DOT>.7962E-4</MEAN_MOTION_DOT><MEAN_MOTION_DDOT>0</MEAN_MOTION_DDOT></tleParameters></data></segment></body></omm>

</ndm>
